{
    "links": {
        "self": "http://www.neowsapp.com/rest/v1/neo/54049783?api_key=iIulBulltgU6a56xZRHN4H3l9WmuAYTsLGpBGhQ2"
    },
    "id": "54049783",
    "neo_reference_id": "54049783",
    "name": "(2020 OM4)",
    "designation": "2020 OM4",
    "nasa_jpl_url": "http://ssd.jpl.nasa.gov/sbdb.cgi?sstr=54049783",
    "absolute_magnitude_h": 23.434,
    "estimated_diameter": {
        "kilometers": {
            "estimated_diameter_min": 0.0546707431,
            "estimated_diameter_max": 0.1222474978
        },
        "meters": {
            "estimated_diameter_min": 54.6707430526,
            "estimated_diameter_max": 122.247497846
        },
        "miles": {
            "estimated_diameter_min": 0.0339708143,
            "estimated_diameter_max": 0.07596105
        },
        "feet": {
            "estimated_diameter_min": 179.3659606366,
            "estimated_diameter_max": 401.074480833
        }
    },
    "is_potentially_hazardous_asteroid": false,
    "close_approach_data": [
        {
            "close_approach_date": "2020-07-30",
            "close_approach_date_full": "2020-Jul-30 00:50",
            "epoch_date_close_approach": 1596070200000,
            "relative_velocity": {
                "kilometers_per_second": "15.3062249793",
                "kilometers_per_hour": "55102.4099253173",
                "miles_per_hour": "34238.4946560951"
            },
            "miss_distance": {
                "astronomical": "0.0203934954",
                "lunar": "7.9330697106",
                "kilometers": "3050823.473694798",
                "miles": "1895693.8020642924"
            },
            "orbiting_body": "Earth"
        },
        {
            "close_approach_date": "2022-12-28",
            "close_approach_date_full": "2022-Dec-28 01:53",
            "epoch_date_close_approach": 1672192380000,
            "relative_velocity": {
                "kilometers_per_second": "22.8791942416",
                "kilometers_per_hour": "82365.099269809",
                "miles_per_hour": "51178.4695990655"
            },
            "miss_distance": {
                "astronomical": "0.3765720995",
                "lunar": "146.4865467055",
                "kilometers": "56334383.986628065",
                "miles": "35004563.026134697"
            },
            "orbiting_body": "Earth"
        }
    ],
    "orbital_data": {
        "orbit_id": "5",
        "orbit_determination_date": "2020-08-01 06:07:07",
        "first_observation_date": "2020-07-23",
        "last_observation_date": "2020-07-31",
        "data_arc_in_days": 8,
        "observations_used": 47,
        "orbit_uncertainty": "7",
        "minimum_orbit_intersection": ".00257744",
        "jupiter_tisserand_invariant": "4.054",
        "epoch_osculation": "2459000.5",
        "eccentricity": ".5045164995455468",
        "semi_major_axis": "1.672850679838476",
        "inclination": "15.39263218881018",
        "ascending_node_longitude": "308.1347266001798",
        "orbital_period": "790.285825668404",
        "perihelion_distance": ".8288699105839801",
        "perihelion_argument": "63.6724273315436",
        "aphelion_distance": "2.516831449092973",
        "perihelion_time": "2459106.460269166667",
        "mean_anomaly": "311.7317713907657",
        "mean_motion": ".455531389159765",
        "equinox": "J2000",
        "orbit_class": {
            "orbit_class_type": "APO",
            "orbit_class_description": "Near-Earth asteroid orbits which cross the Earth’s orbit similar to that of 1862 Apollo",
            "orbit_class_range": "a (semi-major axis) > 1.0 AU; q (perihelion) < 1.017 AU"
        }
    },
    "is_sentry_object": false
}